#cP2023  9 23  0  0  0.00000000      96 ORBIT IGS20 HLM  IGS
## 2280 518400.00000000   900.00000000 60210 0.0000000000000
+   32   G01G02G03G04G05G06G07G08G09G10G11G12G13G14G15G16G17
+        G18G19G20G21G22G23G24G25G26G27G28G29G30G31G32  0  0
+          0  0  0  0  0  0  0  0  0  0  0  0  0  0  0  0  0
+          0  0  0  0  0  0  0  0  0  0  0  0  0  0  0  0  0
+          0  0  0  0  0  0  0  0  0  0  0  0  0  0  0  0  0
++         3  2  2  2  2  2  2  2  2  2  2  2  2  2  2  2  2
++         2  2  2  2  2  2  3  2  2  2  3  2  2  2  2  0  0
++         0  0  0  0  0  0  0  0  0  0  0  0  0  0  0  0  0
++         0  0  0  0  0  0  0  0  0  0  0  0  0  0  0  0  0
++         0  0  0  0  0  0  0  0  0  0  0  0  0  0  0  0  0
%c G  cc GPS ccc cccc cccc cccc cccc ccccc ccccc ccccc ccccc
%c cc cc ccc ccc cccc cccc cccc cccc ccccc ccccc ccccc ccccc
%f  1.2500000  1.025000000  0.00000000000  0.000000000000000
%f  0.0000000  0.000000000  0.00000000000  0.000000000000000
%i    0    0    0    0      0      0      0      0         0
%i    0    0    0    0      0      0      0      0         0
/* RAPID ORBIT COMBINATION FROM WEIGHTED AVERAGE OF:        
/* cod emr esa gfz grg jgx jpl ngs sio usn whu              
/* REFERENCED TO IGS TIME (IGST) AND TO WEIGHTED MEAN POLE: 
/* PCV:IGS20      OL/AL:FES2014b NONE     Y  ORB:CMB CLK:CMB
*  2023  9 23  3 45  0.00000000
PG01  13481.730038 -21585.367736  -7293.878908    164.886300  6  6  3 104       
PG02  16692.056746 -20515.142157   1417.021864   -550.710904  7  8  6 100       
PG03   7410.343344 -13399.160660 -21835.508993   -120.140985  8  6  5 111       
PG04   2386.850028 -23167.144143 -12643.806855    163.973575  9  9  7 109       
PG05 -21483.393045   6436.272743  14123.449305   -143.770398  6  7  6  94       
PG06 -16022.217570  -2840.946075 -20949.764748    545.161506  7  5  5 105       
PG07  -1524.321892 -18717.529495  19068.054047     59.751235  5  5  4 111       
PG08   9039.781733 -15361.283982  19487.563529   -143.625418  5  7  5 102       
PG09  -5666.313186 -25531.233240  -4568.208847    -52.273444  6  4  5  82       
PG10  22371.653215  11180.498804   9596.494288    -54.484125  3  5  4  87       
PG11 -21356.031163   8915.779675 -12971.045460   -381.885452  8  7  6 109       
PG12 -11688.611669  11828.787697 -20968.434852   -427.868501  6  6  4 116       
PG13 -13871.134131   6236.653457  21558.883904    575.769448  6  3  7 106       
PG14 -19659.187733 -13480.302914  11913.892306    193.056690  5  8  6  96       
PG15  -6609.949962  17335.099880  18439.926507     80.167392  6  6  3  91       
PG16  24598.568697    -49.691377  10272.489218   -450.122238  6  3  5  94       
PG17 -12934.764162 -20214.349857 -10815.203255    723.836892  6  6  2  99       
PG18   2541.943302  17237.717559  19995.943717   -426.230174  5  8  7  99       
PG19 -15192.624103 -13276.941586 -17646.565931    375.230477  4  3     93       
PG20 -26196.545720   1562.582050   3400.444667    410.476378  5  7  6 110       
PG21  17716.782575 -18733.039063   4323.662375    148.341460  5  8  6  98       
PG22 -23236.393784 -11333.352924   5856.740801    116.529028  4  7  5  86       
PG23  11830.764967  14903.490952  18610.783800     72.230359  2  4  5 107       
PG24 -14519.336743  21912.699646  -1846.873076   -327.038739  8 11  9 125       
PG25   3690.032636  16074.298214 -21183.123481    469.170685  6  6  4 106       
PG26  26474.816918   3855.702530   -439.420074    227.120543  2  5  2 109       
PG27  15047.782808  -2031.775748  21565.762511    -43.933484  5  2  3  92       
PG28  15275.487490   4776.444237 -21220.113999    -13.755403  8  8  5 101       
PG29   3548.813376  25948.865097  -4113.926519   -609.545831  6  8  5  96       
PG30 -10611.904914 -11789.426073  21413.612509   -485.305305  6  4  6 100       
PG31  20437.041947  -4495.062072 -16786.909060   -223.745565  6  4  6  96       
PG32  15758.120229  16309.016674 -13808.949996   -562.186441  7  6  6  76       
*  2023  9 23  4  0  0.00000000
PG01  14038.097548 -21945.980907  -4464.401601    164.885609  6  7  2 102       
PG02  16735.032139 -20152.519095   4272.996456   -550.706533  6  7  6  93       
PG03   9790.902239 -12933.077724 -21154.432374   -120.121861  8  7  4 114       
PG04   3069.185745 -21728.975511 -14865.154918    163.983544  8  9  7 107       
PG05 -22955.184981   6061.496053  11824.474331   -143.771679  6  7  6  83       
PG06 -14467.672249  -4729.374316 -21715.286559    545.154975  7  5  4 112       
PG07    -95.235656 -20163.895887  17511.667656     59.741958  6  5  4 109       
PG08  10011.255157 -13253.481350  20563.045570   -143.627539  4  7  5  95       
PG09  -5179.331536 -25001.693396  -7309.858230    -52.264075  6  5  4 103       
PG10  21159.582551  11122.246759  12102.015265    -54.484705  2  5  4  98       
PG11 -20400.562949   7602.869334 -15162.217230   -381.901772  8  7  6 120       
PG12 -13887.305488  11197.701809 -19928.349227   -427.872270  7  6  4 110       
PG13 -14428.284847   3778.380401  21780.049425    575.772988  6  4  7 116       
PG14 -18159.399262 -13401.979626  14159.009778    193.066854  5  8  6  95       
PG15  -7840.441615  15400.802996  19628.153583     80.170745  5  6  3  89       
PG16  25566.573926    413.822736   7689.978758   -450.117267  5  4  5  85       
PG17 -13054.631567 -21376.365564  -8220.269136    723.836953  6  7     94       
PG18   1010.902908  18836.726619  18627.273537   -426.241315  5  8  7 102       
PG19 -15526.886465 -15115.137687 -15785.477352    375.234883  4  4    100       
PG20 -26420.794659   1262.948918    567.224605    410.474803  4  7  6 104       
PG21  17617.206686 -18055.407520   7133.009464    148.341056  5  8  6  92       
PG22 -22421.472454 -11371.467248   8571.711991    116.522323  4  7  5  98       
PG23   9641.775910  14683.753682  19982.065717     72.235206  3  4  5 116       
PG24 -14824.539278  21714.243913    979.373525   -327.048213  7 10  9 131       
PG25   1327.417896  15736.911912 -21693.953056    469.172466  6  6  4 106       
PG26  26251.130824   4140.079049  -3207.657297    227.118719  2  5  3 102       
PG27  15890.752458    309.884238  21091.227803    -43.939031  5  2  3  90       
PG28  13804.059433   6735.781484 -21692.069663    -13.760540  8  8  6  99       
PG29   3171.084944  25404.680923  -6910.891170   -609.546285  6  8  4 105       
PG30  -9013.968767 -13601.003613  21043.215603   -485.302149  6  4  6  98       
PG31  19242.787582  -2923.078887 -18443.894478   -223.745854  6  4  6 100       
PG32  16089.198338  17752.630702 -11500.782673   -562.191718  7  6  6  69       
*  2023  9 23  4 15  0.00000000
PG01  14377.119758 -22076.136614  -1556.999780    164.884958  6  8  1 101       
PG02  16626.150624 -19524.209848   7055.320246   -550.702305  6  7  6 100       
PG03  12098.574214 -12610.388390 -20113.329445   -120.102690  7  7  4 111       
PG04   3912.584224 -20107.845275 -16829.105987    163.993535  8  9  6 105       
PG05 -24171.390795   5784.568457   9321.138083   -143.772460  5  7  6  99       
PG06 -12982.276469  -6756.080143 -22105.406537    545.148425  7  4  3 100       
PG07   1150.094355 -21531.015374  15658.881821     59.732476  6  5  4 112       
PG08  11130.362138 -11108.442829  21279.599504   -143.629697  4  7  5  96       
PG09  -4539.365179 -24222.852975  -9925.680212    -52.254738  6  5  4  80       
PG10  19678.209903  11102.171532  14404.641897    -54.486410  3  4  4  90       
PG11 -19367.838835   6060.556841 -17091.592167   -381.918064  7  6  6 123       
PG12 -15985.076488  10708.253831 -18552.456894   -427.875793  6  6  4 117       
PG13 -15115.379185   1351.821036  21619.501765    575.777332  6  5  7  91       
PG14 -16420.194671 -13365.407664  16162.710897    193.076891  5  8  6 122       
PG15  -9220.065459  13426.387336  20462.613247     80.174082  5  6  3  89       
PG16  26264.330596    762.647238   4977.160556   -450.112204  5  4  4  91       
PG17 -13133.750057 -22240.570694  -5480.611796    723.837351  5  7  2  91       
PG18   -326.837714  20378.961714  16936.282012   -426.252367  5  9  7  92       
PG19 -15894.012910 -16719.005030 -13660.214350    375.239499  4  5     86       
PG20 -26337.932046    956.023604  -2275.870401    410.473395  3  8  6  88       
PG21  17384.419476 -17110.002832   9814.762162    148.340333  6  7  6 100       
PG22 -21320.288666 -11388.532820  11139.217277    116.515680  4  6  5  98       
PG23   7307.281996  14572.799789  21011.260451     72.240065  3  4  6 108       
PG24 -14973.975264  21254.163464   3788.243315   -327.057639  7 10  8 127       
PG25  -1088.188254  15518.341849 -21842.760363    469.174230  5  6  4 112       
PG26  25735.618030   4421.158999  -5921.966338    227.116922  2  6  3  98       
PG27  16823.493318   2530.781663  20247.535570    -43.944557  5  2  2  85       
PG28  12418.905039   8796.051349 -21791.587863    -13.765718  8  7  6  87       
PG29   2662.659357  24588.167861  -9588.350303   -609.546846  6  9  4 104       
PG30  -7540.672313 -15440.396084  20313.488403   -485.298975  7  4  6 102       
PG31  18028.526855  -1156.442176 -19792.400686   -223.746450  6  5  5 100       
PG32  16384.746748  18926.095985  -8995.015091   -562.196967  7  6  6  70       
EOF
